MEAN_MOTION;ECCENTRICITY;INCLINATION;RA_OF_ASC_NODE;ARG_OF_PERICENTER;MEAN_ANOMALY;BSTAR;MEAN_MOTION_DOT;MEAN_MOTION_DDOT;TYPE
14.75032129;0.0083185;64.556;322.9684;274.775;84.3857;1.0006E-5;-7.9E-7;0;Amateur
14.7503216;0.0083186;64.5559;322.3471;274.7375;84.4231;1.0223E-5;-7.7E-7;0;Amateur
14.75032276;0.0083189;64.5558;320.0688;274.5874;84.5729;1.0522E-5;-7.5E-7;0;Amateur
14.7503233;0.0083187;64.5557;319.2403;274.5398;84.6205;1.1333E-5;-6.9E-7;0;Amateur
14.75032465;0.0083198;64.5555;316.962;274.3931;84.7669;1.2046E-5;-6.4E-7;0;Amateur
14.75032579;0.0083197;64.5555;315.5122;274.3083;84.8516;1.3151E-5;-5.6E-7;0;Amateur
14.75032809;0.00832;64.5552;311.784;274.0731;85.0865;1.3897E-5;-5.1E-7;0;Amateur
14.75032823;0.0083199;64.5552;311.5769;274.0591;85.1004;1.3589E-5;-5.3E-7;0;Amateur
14.75032984;0.0083197;64.5551;308.6772;273.8773;85.282;1.3453E-5;-5.4E-7;0;Amateur
14.75033024;0.0083193;64.555;307.2273;273.7887;85.3706;1.2819E-5;-5.9E-7;0;Amateur
14.75033122;0.0083214;64.5549;304.7419;273.6371;85.5217;1.1732E-5;-6.6E-7;0;Amateur
14.75033136;0.0083209;64.5548;304.1206;273.5966;85.5622;1.1267E-5;-7.0E-7;0;Amateur
14.75033286;0.0083218;64.5547;301.6352;273.4426;85.716;1.1221E-5;-7.0E-7;0;Amateur
14.75033296;0.0083219;64.5547;300.8067;273.3878;85.7707;9.9183E-6;-7.9E-7;0;Amateur
14.75033403;0.0083216;64.5546;298.5284;273.2372;85.9212;9.6951E-6;-8.1E-7;0;Amateur
14.75033546;0.0083226;64.5544;295.8358;273.0714;86.0867;9.3245E-6;-8.4E-7;0;Amateur
14.75033714;0.0083232;64.5542;292.729;272.8776;86.2803;1.0168E-5;-7.8E-7;0;Amateur
14.75033725;0.0083231;64.5542;292.5219;272.8662;86.2917;1.0279E-5;-7.7E-7;0;Amateur
14.75033853;0.0083246;64.5541;289.6221;272.7002;86.4574;1.0447E-5;-7.6E-7;0;Amateur
14.75033867;0.0083245;64.5541;289.415;272.6883;86.4692;1.0621E-5;-7.4E-7;0;Amateur
14.75033983;0.0083243;64.554;287.3437;272.5546;86.6029;1.0734E-5;-7.4E-7;0;Amateur
14.75033984;0.0083248;64.554;286.5152;272.5053;86.652;1.0786E-5;-7.3E-7;0;Amateur
14.75034004;0.0083247;64.554;286.308;272.495;86.6624;1.1077E-5;-7.1E-7;0;Amateur
14.75034113;0.0083249;64.554;284.2367;272.3583;86.799;1.1157E-5;-7.1E-7;0;Amateur
14.75034163;0.0083249;64.554;283.4083;272.3024;86.8548;1.2122E-5;-6.4E-7;0;Amateur
14.75034199;0.0083248;64.554;282.994;272.2793;86.8779;1.2534E-5;-6.1E-7;0;Amateur
14.7503427;0.008325;64.554;281.337;272.1751;86.982;1.1989E-5;-6.5E-7;0;Amateur
14.750343;0.0083254;64.554;280.3013;272.1168;87.0402;1.2439E-5;-6.1E-7;0;Amateur
14.75034455;0.008326;64.554;277.4015;271.9452;87.2117;1.2939E-5;-5.8E-7;0;Amateur
14.75034472;0.0083259;64.554;277.1944;271.932;87.2249;1.3082E-5;-5.7E-7;0;Amateur
14.75034606;0.0083265;64.554;274.2945;271.7586;87.398;1.248E-5;-6.1E-7;0;Amateur
14.75034631;0.0083264;64.554;274.0874;271.737;87.4196;1.2633E-5;-6.0E-7;0;Amateur
14.7503479;0.0083265;64.554;271.1875;271.5662;87.5904;1.2046E-5;-6.4E-7;0;Amateur
14.7503484;0.0083268;64.554;270.5661;271.525;87.6315;1.1827E-5;-6.6E-7;0;Amateur
14.75034943;0.0083272;64.5541;268.0807;271.3473;87.8091;1.0657E-5;-7.4E-7;0;Amateur
14.7503511;0.0083274;64.5541;265.181;271.1682;87.988;1.0346E-5;-7.6E-7;0;Amateur
14.75035133;0.0083272;64.5541;264.9738;271.1546;88.0017;1.0552E-5;-7.5E-7;0;Amateur
14.75035354;0.0083275;64.5541;261.8669;270.9511;88.2051;1.1136E-5;-7.1E-7;0;Amateur
14.75035354;0.0083275;64.5541;261.8669;270.9511;88.2051;1.1136E-5;-7.1E-7;0;Amateur
14.75035521;0.0083286;64.5542;259.7957;270.8189;88.3371;1.1271E-5;-7.0E-7;0;Amateur
14.75035568;0.0083283;64.5542;258.9672;270.772;88.384;1.1911E-5;-6.5E-7;0;Amateur
14.75035688;0.0083285;64.5542;257.1031;270.6525;88.5035;1.1508E-5;-6.8E-7;0;Amateur
14.75035694;0.0083284;64.5542;256.896;270.6395;88.5164;1.1431E-5;-6.9E-7;0;Amateur
14.75035721;0.0083289;64.5542;256.2747;270.6046;88.5513;1.1971E-5;-6.5E-7;0;Amateur
14.75035898;0.008329;64.5543;253.1678;270.407;88.7489;1.2342E-5;-6.2E-7;0;Amateur
14.75036116;0.0083283;64.5544;249.8538;270.2029;88.953;1.3442E-5;-5.4E-7;0;Amateur
14.75036314;0.0083296;64.5545;247.1612;270.0253;89.1304;1.4732E-5;-4.5E-7;0;Amateur
14.75036536;0.0083303;64.5546;244.8829;269.8774;89.2782;1.5773E-5;-3.8E-7;0;Amateur
14.75036634;0.0083292;64.5547;243.8474;269.8111;89.3446;1.7032E-5;-2.9E-7;0;Amateur
14.75036849;0.0083291;64.5548;241.1548;269.6474;89.5084;1.7674E-5;-2.4E-7;0;Amateur
14.75037149;0.0083289;64.555;237.6339;269.4334;89.7224;1.7577E-5;-2.5E-7;0;Amateur
14.7503734;0.0083285;64.5551;234.7342;269.2604;89.8955;1.5911E-5;-3.7E-7;0;Amateur
14.75037383;0.0083285;64.5551;234.32;269.2372;89.9187;1.5617E-5;-3.9E-7;0;Amateur
14.75037532;0.0083289;64.5552;231.6275;269.0714;90.0845;1.3864E-5;-5.1E-7;0;Amateur
14.75037654;0.0083284;64.5553;229.5564;268.9415;90.2144;1.225E-5;-6.3E-7;0;Amateur
14.75037695;0.0083284;64.5552;228.9351;268.905;90.2509;1.2547E-5;-6.1E-7;0;Amateur
14.75037815;0.0083286;64.5553;226.4498;268.7464;90.4096;1.0804E-5;-7.3E-7;0;Amateur
14.75037869;0.0083278;64.5553;225.8284;268.7106;90.4454;1.1322E-5;-6.9E-7;0;Amateur
14.75038131;0.0083292;64.5553;222.5146;268.5051;90.6508;1.2071E-5;-6.4E-7;0;Amateur
14.75038246;0.0083293;64.5553;220.0294;268.3492;90.8069;1.161E-5;-6.7E-7;0;Amateur
14.75038433;0.0083278;64.5554;216.5086;268.1416;91.0147;1.2233E-5;-6.3E-7;0;Amateur
14.75038634;0.0083282;64.5554;213.1949;267.9388;91.2175;1.3076E-5;-5.7E-7;0;Amateur
14.75038774;0.0083285;64.5554;210.5024;267.7681;91.3883;1.3636E-5;-5.3E-7;0;Amateur
14.75038862;0.008329;64.5555;209.0527;267.6787;91.4777;1.3571E-5;-5.3E-7;0;Amateur
14.75038942;0.0083293;64.5555;207.8101;267.5995;91.5569;1.4097E-5;-4.9E-7;0;Amateur
14.75039114;0.0083286;64.5555;205.1177;267.4301;91.7265;1.4248E-5;-4.8E-7;0;Amateur
14.75039115;0.0083288;64.5555;204.9106;267.4186;91.738;1.4147E-5;-4.9E-7;0;Amateur
14.75039196;0.0083279;64.5555;204.0822;267.3672;91.7895;1.4239E-5;-4.8E-7;0;Amateur
14.75039339;0.0083281;64.5555;202.2182;267.2448;91.912;1.4439E-5;-4.7E-7;0;Amateur
14.75039457;0.0083275;64.5555;199.9401;267.1081;92.0488;1.3249E-5;-5.6E-7;0;Amateur
14.75039486;0.0083276;64.5554;198.9045;267.0386;92.1184;1.2585E-5;-6.0E-7;0;Amateur
14.75039522;0.0083268;64.5554;198.4903;267.0165;92.1406;1.2775E-5;-5.9E-7;0;Amateur
14.75039625;0.008327;64.5553;196.0051;266.8576;92.2996;1.1249E-5;-7.0E-7;0;Amateur
14.75039613;0.0083267;64.5553;195.798;266.8476;92.3096;1.0808E-5;-7.3E-7;0;Amateur
14.75039761;0.0083254;64.5552;192.8985;266.6606;92.4969;9.9309E-6;-7.9E-7;0;Amateur
14.7503977;0.0083254;64.5552;192.6914;266.6494;92.5082;9.9151E-6;-7.9E-7;0;Amateur
14.75039941;0.0083252;64.555;189.7918;266.4688;92.689;1.0481E-5;-7.5E-7;0;Amateur
14.75040099;0.0083249;64.5549;186.6851;266.2842;92.8738;1.0673E-5;-7.4E-7;0;Amateur
14.75040164;0.0083246;64.5548;186.2709;266.259;92.8991;1.139E-5;-6.9E-7;0;Amateur
14.75040309;0.0083242;64.5547;183.5785;266.0755;93.0827;1.2118E-5;-6.4E-7;0;Amateur
14.7504053;0.0083241;64.5544;180.2645;265.8771;93.2814;1.3905E-5;-5.1E-7;0;Amateur
14.75040729;0.0083238;64.5543;177.3648;265.7062;93.4526;1.521E-5;-4.2E-7;0;Amateur
14.75040764;0.0083235;64.5543;176.9506;265.6801;93.4787;1.5175E-5;-4.2E-7;0;Amateur
14.75040924;0.0083226;64.5543;174.4656;265.4988;93.6603;1.5903E-5;-3.7E-7;0;Amateur
14.75040943;0.0083225;64.5543;174.2585;265.4849;93.6742;1.5996E-5;-3.6E-7;0;Amateur
14.75041136;0.008322;64.5542;171.566;265.3183;93.8411;1.6189E-5;-3.5E-7;0;Amateur
14.75041146;0.0083219;64.5542;171.3588;265.3059;93.8535;1.6129E-5;-3.5E-7;0;Amateur
14.75041175;0.0083219;64.5541;171.1518;265.2869;93.8725;1.6238E-5;-3.4E-7;0;Amateur
14.75041339;0.0083206;64.5541;168.4592;265.121;94.0388;1.5277E-5;-4.1E-7;0;Amateur
14.75041534;0.0083195;64.554;165.1454;264.9118;94.2484;1.3631E-5;-5.3E-7;0;Amateur
14.75041786;0.0083182;64.5539;161.4173;264.6929;94.4678;1.2163E-5;-6.3E-7;0;Amateur
14.75042009;0.0083172;64.5537;157.2749;264.4344;94.7268;9.8801E-6;-8.0E-7;0;Amateur
14.75042112;0.0083168;64.5537;156.2393;264.3742;94.7871;1.1602E-5;-6.7E-7;0;Amateur
14.75042256;0.008316;64.5536;153.5467;264.2103;94.9514;1.1226E-5;-7.0E-7;0;Amateur
14.75042307;0.0083156;64.5535;152.7181;264.1604;95.0014;1.1035E-5;-7.1E-7;0;Amateur
14.75042474;0.0083147;64.5534;150.0255;263.9903;95.1719;1.1876E-5;-6.5E-7;0;Amateur
14.75042812;0.0083128;64.5534;147.1258;263.812;95.3507;1.5897E-5;-3.7E-7;0;Amateur
14.75042844;0.0083121;64.5534;145.0545;263.6812;95.4819;1.3252E-5;-5.6E-7;0;Amateur
14.75042964;0.0083115;64.5534;144.0189;263.621;95.5422;1.5043E-5;-4.3E-7;0;Amateur
14.75043172;0.0083107;64.5534;141.9477;263.4881;95.6754;1.625E-5;-3.4E-7;0;Amateur
14.75043345;0.0083101;64.5535;140.2907;263.3951;95.7686;1.7775E-5;-2.3E-7;0;Amateur
14.750435;0.0083096;64.5535;138.8408;263.2993;95.8647;1.8656E-5;-1.7E-7;0;Amateur
14.75043504;0.0083088;64.5535;138.0123;263.2515;95.9127;1.7311E-5;-2.7E-7;0;Amateur
14.7504374;0.0083079;64.5536;135.3197;263.086;96.0786;1.6977E-5;-2.9E-7;0;Amateur
14.75043754;0.0083078;64.5536;135.1126;263.0722;96.0925;1.6897E-5;-2.9E-7;0;Amateur
14.75043969;0.0083039;64.5537;131.5915;262.8745;96.2909;1.3848E-5;-5.1E-7;0;Amateur
14.75044063;0.0083023;64.5538;129.7275;262.7554;96.4105;1.1989E-5;-6.5E-7;0;Amateur
14.75044263;0.0083017;64.5539;125.9992;262.5217;96.6447;9.7133E-6;-8.1E-7;0;Amateur
14.75044287;0.0083011;64.5539;125.585;262.4971;96.6695;9.223E-6;-8.4E-7;0;Amateur
14.75044472;0.0083;64.5539;122.8923;262.311;96.8561;9.5904E-6;-8.2E-7;0;Amateur
14.75044629;0.0082987;64.554;119.7854;262.1095;97.0582;8.7365E-6;-8.8E-7;0;Amateur
14.75044798;0.0082973;64.5541;116.4714;261.9029;97.2654;8.9082E-6;-8.7E-7;0;Amateur
14.75044798;0.0082973;64.5541;116.4714;261.9029;97.2654;8.9082E-6;-8.7E-7;0;Amateur
14.75044921;0.0082956;64.5542;113.7787;261.7295;97.4394;9.6351E-6;-8.1E-7;0;Amateur
14.75045019;0.0082942;64.5543;111.5004;261.5851;97.5842;9.687E-6;-8.1E-7;0;Amateur
14.75045137;0.0082926;64.5544;109.4292;261.4607;97.7091;1.0429E-5;-7.6E-7;0;Amateur
14.75045162;0.008292;64.5544;108.3936;261.3956;97.7744;1.0295E-5;-7.7E-7;0;Amateur
14.75045274;0.0082902;64.5545;106.1153;261.2515;97.9191;9.9565E-6;-7.9E-7;0;Amateur
